OBJECT_NAME,OBJECT_ID,EPOCH,MEAN_MOTION,ECCENTRICITY,INCLINATION,RA_OF_ASC_NODE,ARG_OF_PERICENTER,MEAN_ANOMALY,EPHEMERIS_TYPE,CLASSIFICATION_TYPE,NORAD_CAT_ID,ELEMENT_SET_NO,REV_AT_EPOCH,BSTAR,MEAN_MOTION_DOT,MEAN_MOTION_DDOT
M2 PATHFINDER,2020-037E,2026-07-14T20:14:11.754240,15.04790838,.0012956,97.8143,27.3878,63.5787,296.6767,0,U,45727,999,32965,.52469E-4,.677E-5,0
NETSAT-4,2020-068U,2026-07-14T14:21:10.656864,15.44743237,.0004668,97.8600,206.0597,195.4241,164.6865,0,U,46504,999,32000,.22334E-3,.10344E-3,0
NETSAT-3,2020-068V,2026-07-14T11:53:16.843776,15.43592804,.00037103,97.8647,204.1323,214.3579,145.7428,0,U,46505,999,31989,.24748186E-3,.11033E-3,0
NETSAT-1,2020-068W,2026-07-14T12:22:09.406560,15.35235465,.00024175,97.8749,198.1561,267.0985,92.9980,0,U,46506,999,31949,.20051291E-3,.677E-4,0
NETSAT-2,2020-068X,2026-07-14T14:20:54.419712,15.47145745,.0002068,97.8610,206.0596,210.5632,149.5496,0,U,46507,999,31997,.27406E-3,.13811E-3,0
GREENCUBE (IO-117),2022-080E,2026-07-14T06:21:38.972160,6.42583348,.00090541,70.1411,288.8296,283.5288,76.4363,0,U,53109,999,9380,0,-.3E-7,0
SITRO-AIS 5 (KATYS),2023-091L,2026-07-14T19:18:19.238112,15.30059676,.0010708,97.5049,259.9759,13.8997,346.2536,0,U,57176,999,16856,.23653E-3,.6814E-4,0
SITRO-AIS 6 (CHIRKIN),2023-091AC,2026-07-14T20:21:05.726016,15.26433655,.0011201,97.5056,258.9899,17.8335,342.3294,0,U,57192,999,16850,.21662E-3,.5577E-4,0
SITRO-AIS 8 (ANOKHIN),2023-091AD,2026-07-14T20:05:51.803232,15.32851650,.0009563,97.5045,261.7127,9.3968,350.7451,0,U,57193,999,16868,.254E-3,.799E-4,0
SITRO-AIS 7 (FARTUSHNIY),2023-091AE,2026-07-14T20:33:56.384640,15.26107860,.0011181,97.5052,258.8093,19.0912,341.0743,0,U,57194,999,16849,.21461E-3,.547E-4,0
SITRO-AIS 10 (BURDAEV),2023-091AK,2026-07-14T19:33:41.948640,15.39618910,.0004888,97.5072,267.0359,343.0477,17.0604,0,U,57199,999,16901,.30219E-3,.1183E-3,0
SITRO-AIS 9 (SHCHUKIN),2023-091AM,2026-07-14T20:24:41.357088,15.39104800,.0005154,97.5071,266.7799,343.0804,17.0268,0,U,57201,999,16900,.28665E-3,.11028E-3,0
SITRO-AIS 12 (SMIRENNIY),2023-091AQ,2026-07-14T20:03:35.724096,15.39400896,.0004721,97.5084,267.2496,335.6491,24.4530,0,U,57204,999,16902,.29877E-3,.1161E-3,0
SITRO-AIS 11 (SHEFFER),2023-091AU,2026-07-14T20:11:41.464032,15.39843912,.00046,97.5082,267.5196,335.2271,24.8753,0,U,57208,999,16904,.29426E-3,.11601E-3,0
SITRO-AIS 25,2024-039R,2026-07-14T20:16:31.109664,14.93641272,.0142755,95.3893,254.0982,230.7568,128.0919,0,U,59066,999,12885,.14666E-3,.1857E-4,0
SITRO-AIS 26,2024-039S,2026-07-14T20:23:58.950240,14.93433477,.0143088,95.3893,253.9937,231.3612,127.4736,0,U,59067,999,12884,.14396E-3,.1813E-4,0
SITRO-AIS 27,2024-039T,2026-07-14T21:06:21.680640,14.93857544,.0142146,95.3898,254.2986,229.7775,129.0944,0,U,59068,999,12887,.10321E-3,.1302E-4,0
SITRO-AIS 28,2024-039U,2026-07-14T20:32:59.588736,14.93891967,.0142053,95.3896,254.3314,229.7015,129.1727,0,U,59071,999,12887,.14246E-3,.1812E-4,0
GRBBETA,2024-128C,2026-07-14T11:54:03.693312,15.06805905,.00371428,61.9898,120.4410,140.4689,219.9124,0,U,60237,999,11038,.13203105E-3,.1784E-4,0
OOV-CUBE (TUBSAT-30),2024-128F,2026-07-14T09:39:01.246464,15.02871955,.00412187,61.9937,130.6682,139.8475,220.5674,0,U,60240,999,11020,.90398228E-4,.1023E-4,0
ROBUSTA-3A (MEDITERRANEE),2024-128J,2026-07-14T20:20:50.282016,15.11984550,.0038177,61.9865,110.4041,133.7963,226.6301,0,U,60243,999,11060,.25238E-3,.42E-4,0
LASARSAT,2024-247Q,2026-07-14T11:32:07.758240,15.48013895,.00072949,44.9737,108.6488,161.9979,198.1171,0,U,62391,999,8754,.41949352E-3,.22152E-3,0
CROCUBE,2024-247T,2026-07-14T10:37:54.274656,15.50156590,.00074582,44.9723,105.7215,167.1731,192.9351,0,U,62394,999,8757,.45083664E-3,.25737E-3,0
FORESAIL-1 PRIME,2025-276DS,2026-07-14T17:35:38.715072,15.18936030,.000291,97.4193,268.5019,45.5776,314.5696,0,U,66778,999,3458,.12593E-3,.2563E-4,0
KNACKSAT-2,1998-067XZ,2026-07-14T08:43:03.084096,15.62347754,.00080246,51.6267,157.5314,324.9954,35.0511,0,U,67683,999,2452,.41016626E-3,.36699E-3,0
