M2 PATHFINDER           
1 45727U 20037E   26195.84319160  .00000677  00000+0  52469-4 0  9991
2 45727  97.8143  27.3878 0012956  63.5787 296.6767 15.04790838329656
NETSAT-4                
1 46504U 20068U   26195.59804001  .00010344  00000+0  22334-3 0  9993
2 46504  97.8600 206.0597 0004668 195.4241 164.6865 15.44743237320001
NETSAT-3                
1 46505U 20068V   26195.49533384  .00011033  00000+0  24748-3 0  9993
2 46505  97.8647 204.1323 0003710 214.3579 145.7428 15.43592804319892
NETSAT-1                
1 46506U 20068W   26195.51538665  .00006770  00000+0  20051-3 0  9999
2 46506  97.8749 198.1561 0002417 267.0985  92.9980 15.35235465319491
NETSAT-2                
1 46507U 20068X   26195.59785208  .00013811  00000+0  27406-3 0  9990
2 46507  97.8610 206.0596 0002068 210.5632 149.5496 15.47145745319978
GREENCUBE (IO-117)      
1 53109U 22080E   26195.26503440 -.00000003  00000+0  00000+0 0  9999
2 53109  70.1411 288.8296 0009054 283.5288  76.4363  6.42583348 93803
SITRO-AIS 5 (KATYS)     
1 57176U 23091L   26195.80438933  .00006814  00000+0  23653-3 0  9992
2 57176  97.5049 259.9759 0010708  13.8997 346.2536 15.30059676168568
SITRO-AIS 6 (CHIRKIN)   
1 57192U 23091AC  26195.84798294  .00005577  00000+0  21662-3 0  9996
2 57192  97.5056 258.9899 0011201  17.8335 342.3294 15.26433655168507
SITRO-AIS 8 (ANOKHIN)   
1 57193U 23091AD  26195.83740513  .00007990  00000+0  25400-3 0  9992
2 57193  97.5045 261.7127 0009563   9.3968 350.7451 15.32851650168681
SITRO-AIS 7 (FARTUSHNIY)
1 57194U 23091AE  26195.85690260  .00005470  00000+0  21461-3 0  9992
2 57194  97.5052 258.8093 0011181  19.0912 341.0743 15.26107860168491
SITRO-AIS 10 (BURDAEV)  
1 57199U 23091AK  26195.81506885  .00011830  00000+0  30219-3 0  9990
2 57199  97.5072 267.0359 0004888 343.0477  17.0604 15.39618910169019
SITRO-AIS 9 (SHCHUKIN)  
1 57201U 23091AM  26195.85047867  .00011028  00000+0  28665-3 0  9999
2 57201  97.5071 266.7799 0005154 343.0804  17.0268 15.39104800169000
SITRO-AIS 12 (SMIRENNIY)
1 57204U 23091AQ  26195.83583014  .00011610  00000+0  29877-3 0  9992
2 57204  97.5084 267.2496 0004721 335.6491  24.4530 15.39400896169025
SITRO-AIS 11 (SHEFFER)  
1 57208U 23091AU  26195.84145213  .00011601  00000+0  29426-3 0  9992
2 57208  97.5082 267.5196 0004600 335.2271  24.8753 15.39843912169048
SITRO-AIS 25            
1 59066U 24039R   26195.84480451  .00001857  00000+0  14666-3 0  9997
2 59066  95.3893 254.0982 0142755 230.7568 128.0919 14.93641272128853
SITRO-AIS 26            
1 59067U 24039S   26195.84998785  .00001813  00000+0  14396-3 0  9994
2 59067  95.3893 253.9937 0143088 231.3612 127.4736 14.93433477128844
SITRO-AIS 27            
1 59068U 24039T   26195.87941760  .00001302  00000+0  10321-3 0  9996
2 59068  95.3898 254.2986 0142146 229.7775 129.0944 14.93857544128870
SITRO-AIS 28            
1 59071U 24039U   26195.85624524  .00001812  00000+0  14246-3 0  9990
2 59071  95.3896 254.3314 0142053 229.7015 129.1727 14.93891967128879
GRBBETA                 
1 60237U 24128C   26195.49587608  .00001784  00000+0  13203-3 0  9996
2 60237  61.9898 120.4410 0037142 140.4689 219.9124 15.06805905110382
OOV-CUBE (TUBSAT-30)    
1 60240U 24128F   26195.40209776  .00001023  00000+0  90398-4 0  9995
2 60240  61.9937 130.6682 0041218 139.8475 220.5674 15.02871955110201
ROBUSTA-3A (MEDITERRAN*)
1 60243U 24128J   26195.84780419  .00004200  00000+0  25238-3 0  9994
2 60243  61.9865 110.4041 0038177 133.7963 226.6301 15.11984550110608
LASARSAT                
1 62391U 24247Q   26195.48064535  .00022152  00000+0  41949-3 0  9999
2 62391  44.9737 108.6488 0007294 161.9979 198.1171 15.48013895 87542
CROCUBE                 
1 62394U 24247T   26195.44298929  .00025737  00000+0  45084-3 0  9990
2 62394  44.9723 105.7215 0007458 167.1731 192.9351 15.50156590 87570
FORESAIL-1 PRIME        
1 66778U 25276DS  26195.73308698  .00002563  00000+0  12593-3 0  9991
2 66778  97.4193 268.5019 0002910  45.5776 314.5696 15.18936030 34586
KNACKSAT-2              
1 67683U 98067XZ  26195.36323014  .00036699  00000+0  41017-3 0  9993
2 67683  51.6267 157.5314 0008024 324.9954  35.0511 15.62347754 24527
